RSP-03                  
1 65732U 98067XL  26035.47578789  .00570138  14657-3  13481-2 0  9993
2 65732  51.6160 218.5066 0005761 259.3276 100.7083 15.96166133 21659
YOTSUBA-KULOVER         
1 65941U 98067XN  26033.98479468  .00107724  00000+0  89351-3 0  9993
2 65941  51.6239 235.6577 0004246 213.0597 147.0135 15.69363652 18030
BOTAN                   
1 65942U 98067XP  26034.91604493  .00306933  00000+0  14689-2 0  9990
2 65942  51.6183 227.5880 0005467 240.0563 119.9896 15.81334182 18228
E-KAGAKU-1              
1 65943U 98067XQ  26034.94039252  .00118334  00000+0  97344-3 0  9995
2 65943  51.6262 230.7980 0003242 231.2100 128.8608 15.69525109 18184
HRC MONOBLOCK CAMERA    
1 66052U 98067XR  26034.56460488  .00046740  00000+0  59929-3 0  9992
2 66052  51.6280 237.2888 0000408   5.0318 355.0678 15.58676411 17062
HTV-X1                  
1 66174U 25241A   26035.01771291  .00010297  00000+0  19874-3 0  9992
2 66174  51.6311 238.8105 0011107  61.9619 298.2491 15.48378125   517
SZ-21 MODULE            
1 66515U 25246C   26035.42806420  .00033533  00000+0  32027-3 0  9997
2 66515  41.4759  47.7144 0003176 274.1114  85.9364 15.66025565 12851
SHENZHOU-22             
1 66645U 25272A   26035.29570937  .00017580  00000+0  22165-3 0  9992
2 66645  41.4675  51.1227 0005972 356.5106   3.5690 15.59172508267644
SOYUZ-MS 28             
1 66664U 25275A   26035.34041750  .00009876  00000+0  19091-3 0  9991
2 66664  51.6311 237.2151 0011114  63.0955 297.1168 15.48385070551167
DUPLEX                  
1 66906U 98067XS  26035.10412036  .00032284  00000+0  49829-3 0  9993
2 66906  51.6284 237.1408 0001531  84.3291 275.7874 15.53830479  9900
1998-067XT              
1 66907U 98067XT  26034.92089450  .00100800  00000+0  11898-2 0  9997
2 66907  51.6255 236.6654 0002509 183.1784 176.9194 15.60522221  9893
1998-067XU              
1 66908U 98067XU  26035.11253011  .00099819  00000+0  11748-2 0  9997
2 66908  51.6254 235.6928 0002268 182.8483 177.2498 15.60602240  9925
